ONEWEB-0080             
1 45426U 20020C   25193.67268075 -.00000245  00000+0 -72589-3 0  9992
2 45426  87.8829  88.7348 0002234  78.7063 281.4316 13.11419545258201
ONEWEB-0090             
1 45427U 20020D   25193.46329644  .00000555  00000+0  15310-2 0  9990
2 45427  87.8839  88.7774 0001819  77.4497 282.6835 13.11418019258148
ONEWEB-0061             
1 45428U 20020E   25193.95315066 -.00000246  00000+0 -73029-3 0  9999
2 45428  87.8827  88.6619 0001892  78.9212 281.2129 13.11415599258168
ONEWEB-0081             
1 45429U 20020F   25193.93465195  .00000482  00000+0  13239-2 0  9993
2 45429  87.8829  88.6861 0001873  85.2140 274.9202 13.11413880258274
ONEWEB-0069             
1 45430U 20020G   25193.46584327 -.00000857  00000+0 -24542-2 0  9999
2 45430  87.8837  88.7708 0001827  82.6192 277.5144 13.11423268258144
ONEWEB-0031             
1 45431U 20020H   25193.66674629 -.00000427  00000+0 -12399-2 0  9997
2 45431  87.8836  88.7610 0002019  72.5320 287.6028 13.11419052258151
ONEWEB-0027             
1 45432U 20020J   25193.94797040  .00000011  00000+0 -37591-5 0  9994
2 45432  87.9045  73.3718 0001646  70.8342 289.2968 13.17648746261687
ONEWEB-0064             
1 45433U 20020K   25193.66504888 -.00000617  00000+0 -17761-2 0  9997
2 45433  87.8834  88.7537 0001923  72.6505 287.4833 13.11417436258187
